NSS-11 (AAP-1)          
1 26554U 00059A   17110.57535551 -.00000353  00000-0  00000-0 0  9994
2 26554   0.0538  63.6483 0001828 347.6419 112.8711  1.00268777 60637
N-SAT-110 (JCSAT-110)   
1 26559U 00060A   17110.95001955 -.00000360  00000-0  00000-0 0  9997
2 26559   0.0387  65.0388 0001481  34.9632 201.2907  1.00270951  7742
AMC-6 (GE-6)            
1 26580U 00067A   17110.40278176 -.00000281  00000-0  00000-0 0  9991
2 26580   0.0185  52.5427 0001711 311.3872 282.7543  1.00276742 60441
INTELSAT 12 (IS-12)     
1 26590U 00068A   17110.86352111  .00000129  00000-0  00000-0 0  9995
2 26590   0.3622  93.3982 0001781 284.4526 187.1183  1.00271568 18186
INTELSAT 1R (IS-1R)     
1 26608U 00072A   17110.49609314  .00000123  00000-0  00000-0 0  9993
2 26608   0.1996  89.4733 0002523 224.0122 283.6288  1.00003313 60114
ANIK F1                 
1 26624U 00076A   17109.72038016 -.00000082  00000-0  00000-0 0  9999
2 26624   0.0348 118.7442 0001619 320.8582 280.4214  1.00272648  9593
ASTRA 2D                
1 26638U 00081A   17110.44975017  .00000043  00000-0  00000-0 0  9998
2 26638   3.5402  70.2951 0001895 313.6814  46.3551  1.00269851 19370
AMC-8 (GE-8)            
1 26639U 00081B   17110.67918873  .00000096  00000-0  00000-0 0  9999
2 26639   0.0581  74.6538 0002958 326.1050 273.6839  1.00272539 59816
SKYNET 4F               
1 26695U 01005B   17110.16698250 -.00000249  00000-0  00000-0 0  9997
2 26695   8.8329  37.0506 0004679  18.2605 179.2230  1.00276836 59336
EUTELSAT 33C            
1 26719U 01011A   17110.55119003  .00000147  00000-0  00000-0 0  9994
2 26719   0.0684  14.2394 0005065  15.8704  50.2729  1.00276212 59043
INTELSAT 10 (IS-10)     
1 26766U 01019A   17110.79075100  .00000119  00000-0  00000-0 0  9998
2 26766   1.3967  85.3993 0002331 290.9542 164.8708  1.00270553 58394
INTELSAT 901 (IS-901)   
1 26824U 01024A   17110.84999775 -.00000149  00000-0  00000-0 0  9992
2 26824   0.0240 280.0240 0002761 118.4510  98.6419  1.00271806 58063
ASTRA 2C                
1 26853U 01025A   17110.92639449  .00000038  00000-0  00000-0 0  9999
2 26853   0.2778  90.5654 0002973 300.3261 212.0968  1.00272087 11529
ARTEMIS                 
1 26863U 01029A   17110.70685674 -.00000368  00000-0  00000-0 0  9998
2 26863  12.6725  33.6552 0002609  27.4643 165.2394  1.00266540 58868
INTELSAT 902 (IS-902)   
1 26900U 01039A   17110.79113977  .00000024  00000-0  00000-0 0  9990
2 26900   0.0224 116.1749 0002998 264.6613 175.0136  1.00272295 57184
EUTELSAT 12 WEST B      
1 26927U 01042A   17110.63729703 -.00000108  00000-0  00000-0 0  9990
2 26927   0.0541  22.4978 0006068   2.1705  41.1814  1.00272032 56978
DIRECTV 4S              
1 26985U 01052A   17110.60862221 -.00000121  00000-0  00000-0 0  9990
2 26985   0.0171 187.2330 0002132 217.1903 282.3786  1.00271548 56450
INSAT-3C                
1 27298U 02002A   17110.95485955 -.00000267  00000-0  00000-0 0  9998
2 27298   0.5025  91.6537 0004818 233.4020 321.4272  1.00273170 55875
ECHOSTAR 7              
1 27378U 02006A   17110.50570366 -.00000008  00000-0  00000-0 0  9996
2 27378   0.0562  75.6338 0001496 282.0621 274.3560  1.00270682 17118
INTELSAT 904 (IS-904)   
1 27380U 02007A   17110.86351812  .00000128  00000-0  00000-0 0  9994
2 27380   0.0428  95.8495 0003109   4.0325 105.2160  1.00273103 18239
TDRS 9                  
1 27389U 02011A   17110.84967785 -.00000104  00000-0  00000-0 0  9993
2 27389   5.1333  79.7806 0020933 250.1382 172.8399  1.00273207 56913
JCSAT 2A                
1 27399U 02015A   17110.81990308 -.00000315  00000-0  00000-0 0  9996
2 27399   0.3568  92.8316 0000473 172.9347  14.5137  1.00270290 55361
ASTRA 3A                
1 27400U 02015B   17109.74462883 -.00000285  00000-0  00000-0 0  9997
2 27400   3.7031  69.0397 0002940 339.0005  21.0230  1.00276244 55170
INTELSAT 903 (IS-903)   
1 27403U 02016A   17110.33104819 -.00000246  00000-0  00000-0 0  9997
2 27403   0.0158 255.6710 0003147 143.0392 254.5766  1.00271032 12133
NSS-7                   
1 27414U 02019A   17110.10057875 -.00000162  00000-0  00000-0 0  9993
2 27414   1.7759  83.2817 0002716 324.5802 176.7267  1.00272005 55012
DIRECTV 5 (TEMPO 1)     
1 27426U 02023A   17109.72814592 -.00000064  00000-0  00000-0 0  9995
2 27426   0.0152 265.2387 0003451 131.9345 322.8563  1.00271217 54798
INTELSAT 905 (IS-905)   
1 27438U 02027A   17110.58035354 -.00000192  00000-0  00000-0 0  9991
2 27438   0.0119 246.3006 0002466 135.5091  11.4704  1.00271183 17839
EXPRESS-A4              
1 27441U 02029A   17110.27777773 -.00000250  00000-0  00000-0 0  9996
2 27441   5.9651  56.8776 0002054  17.7224  19.2949  1.00267200 54437
GALAXY 3C (G-3C)        
1 27445U 02030A   17109.68626518 -.00000159  00000-0  00000-0 0  9993
2 27445   0.0172 284.2305 0001415  56.7351  19.0347  1.00270515 54415
EUTELSAT 5 WEST A       
1 27460U 02035A   17110.43430749 -.00000051  00000-0  00000-0 0  9990
2 27460   0.0485  32.9086 0005328 356.5789 330.5489  1.00271955 54211
N-STAR C                
1 27461U 02035B   17110.76243442 -.00000314  00000-0  00000-0 0  9991
2 27461   4.5265  65.1086 0003785 316.3093 238.0927  1.00271102 54125
ECHOSTAR 8              
1 27501U 02039A   17109.28818986 -.00000250  00000-0  00000-0 0  9995
2 27501   0.9663  88.6476 0003003 274.4750 231.3324  1.00272783 53720
EUTELSAT 36 WEST A      
1 27508U 02040A   17109.52282452 -.00000253  00000-0  00000-0 0  9997
2 27508   0.0762 341.8405 0006929  38.5693 339.6233  1.00268753 53700
METEOSAT-8 (MSG-1)      
1 27509U 02040B   17110.92534059  .00000136  00000-0  00000-0 0  9996
2 27509   4.7429  58.5476 0000781 163.9023   1.3812  1.00280761 53723
INTELSAT 906 (IS-906)   
1 27513U 02041A   17110.90649413  .00000006  00000-0  00000-0 0  9997
2 27513   0.0232 260.7376 0002811 134.2174 204.6865  1.00271583 53503
KODAMA (DRTS)           
1 27516U 02042B   17110.84216218 -.00000244  00000-0  00000-0 0  9992
2 27516   4.9409  62.3811 0003165 332.1521 208.4963  1.00273503 53519
KALPANA-1 (METSAT 1)    
1 27525U 02043A   17110.37093676 -.00000081  00000-0  00000-0 0  9991
2 27525   6.2563  55.6015 0013936 237.4105 122.4243  1.00273105 53501
HISPASAT 1D             
1 27528U 02044A   17110.56368167 -.00000225  00000-0  00000-0 0  9996
2 27528   0.0357 322.7880 0004989  57.7145   1.2341  1.00270200 53416
TDRS 10                 
1 27566U 02055A   17110.06832158  .00000075  00000-0  00000-0 0  9993
2 27566   4.9362  58.6576 0009940 245.7590 114.1181  1.00269231 52696
NSS-6                   
1 27603U 02057A   17110.95454297 -.00000278  00000-0  00000-0 0  9995
2 27603   0.0515  76.2105 0001668 288.4736 283.1864  1.00272910 52563
NIMIQ 2                 
1 27632U 02062A   17110.64906767 -.00000132  00000-0  00000-0 0  9992
2 27632   1.8753  82.2171 0003872 251.9583 108.2674  0.99546879 52349
INTELSAT 907 (IS-907)   
1 27683U 03007A   17109.49926869 -.00000210  00000-0  00000-0 0  9991
2 27683   0.0149 230.5890 0003031 169.1553 320.2834  1.00271813 51849
GALAXY 12 (G-12)        
1 27715U 03013B   17110.67696126  .00000050  00000-0  00000-0 0  9997
2 27715   0.0492  86.7889 0001959 318.6978 278.1825  1.00274040 51468
ASIASAT 4               
1 27718U 03014A   17110.81958542 -.00000368  00000-0  00000-0 0  9993
2 27718   0.0460  88.8161 0000412 321.5705 215.8712  1.00271419 51387
HELLAS-SAT 2            
1 27811U 03020A   17110.78174432  .00000144  00000-0  00000-0 0  9999
2 27811   0.0122 207.7129 0003931 187.2935 134.4745  1.00273924  9325
AMC-9 (GE-12)           
1 27820U 03024A   17110.54393920 -.00000224  00000-0  00000-0 0  9992
2 27820   0.0216 294.7896 0002846  83.8629 302.9740  1.00271607 50847
THURAYA-2               
1 27825U 03026A   17110.50090546  .00000126  00000-0  00000-0 0  9993
2 27825   4.8690  28.9097 0005035 348.6599  55.5526  1.00275549 50810
OPTUS C1                
1 27831U 03028B   17110.79362486 -.00000155  00000-0  00000-0 0  9991
2 27831   0.0525 131.1745 0002559 273.0518 246.5610  1.00272299 50780
ECHOSTAR 12 (RAINBOW 1) 
1 27852U 03033A   17110.31993667 -.00000290  00000-0  00000-0 0  9999
2 27852   0.0428  60.5864 0001108 329.3655 232.6310  1.00269966 50430
GALAXY 23 (G-23)        
1 27854U 03034A   17110.50025910  .00000005  00000-0  00000-0 0  9993
2 27854   0.0130 248.3066 0002934 139.3420 240.2201  1.00272310 55008
EUTELSAT 33A            
1 27948U 03043A   17110.75279840  .00000146  00000-0  00000-0 0  9993
2 27948   2.2560  78.4885 0001696 240.4571 191.9922  1.00276140 11941
GALAXY 13 (HORIZONS-1)  
1 27954U 03044A   17110.48431844  .00000040  00000-0  00000-0 0  9998
2 27954   0.0451  97.4791 0001364 289.0317 229.5794  1.00271559 13046
ZHONGXING-20            
1 28082U 03052A   17110.89522190 -.00000331  00000-0  00000-0 0  9994
2 28082   3.3948  71.5618 0003990 305.4603 257.7286  1.00274073 49227
YAMAL 202               
1 28089U 03053A   17110.79078911  .00000112  00000-0  00000-0 0  9994
2 28089   0.0558  84.2446 0003615 307.2675 151.1651  1.00271816 49144
EXPRESS-AM22 (SESAT 2)  
1 28134U 03060A   17110.51241457 -.00000146  00000-0  00000-0 0  9998
2 28134   0.3295  90.5140 0000401  11.7579  11.0854  1.00273749 48737
AMC-10 (GE-10)          
1 28154U 04003A   17110.52391375  .00000080  00000-0  00000-0 0  9990
2 28154   0.0211 283.9879 0002971 136.3743 202.0474  1.00273540 48393
ABS-4 (MOBISAT-1)       
1 28184U 04007A   17109.85605144  .00000033  00000-0  00000-0 0  9991
2 28184   0.0229 263.3263 0001555 124.4362 189.5180  1.00272021 48033
EUTELSAT 7A             
1 28187U 04008A   17110.72757861  .00000040  00000-0  00000-0 0  9995
2 28187   0.0701  24.7962 0003088  27.8119  65.3095  1.00272825 47852
DIRECTV 7S              
1 28238U 04016A   17110.50570446 -.00000007  00000-0  00000-0 0  9993
2 28238   0.0367  33.9956 0002962   5.3607 232.4083  1.00272447 47534
